OBJECT_NAME,OBJECT_ID,EPOCH,MEAN_MOTION,ECCENTRICITY,INCLINATION,RA_OF_ASC_NODE,ARG_OF_PERICENTER,MEAN_ANOMALY,EPHEMERIS_TYPE,CLASSIFICATION_TYPE,NORAD_CAT_ID,ELEMENT_SET_NO,REV_AT_EPOCH,BSTAR,MEAN_MOTION_DOT,MEAN_MOTION_DDOT
STARLINK-11549 [DTC],2025-019D,2026-07-23T03:45:42.412032,15.70906299,.00029759,42.9993,209.6609,283.9832,76.0705,0,U,62832,999,8518,.82173384E-3,.106665E-2,0
STARLINK-11554 [DTC],2025-019E,2026-07-23T03:53:21.128640,15.70845313,.0002568,43.0022,209.7054,283.1167,76.9414,0,U,62833,999,8518,.96698067E-3,.125556E-2,0
STARLINK-11520 [DTC],2025-019F,2026-07-23T07:34:30.681696,15.70918322,.00010064,42.9996,208.2541,232.6994,127.3782,0,U,62834,999,8522,.18646706E-2,.246869E-2,0
STARLINK-11546 [DTC],2025-019G,2026-07-23T07:19:24.220416,15.70890070,.00005828,42.9994,209.0641,214.8366,145.2463,0,U,62835,999,8520,.18535416E-2,.245052E-2,0
STARLINK-11533 [DTC],2025-019H,2026-07-23T00:27:17.548704,15.70939456,.00009407,42.9994,210.3425,265.3011,94.7749,0,U,62836,999,8516,.16965313E-2,.224147E-2,0
STARLINK-11557 [DTC],2025-019J,2026-07-23T01:35:52.926720,15.70812623,.00023087,43.0017,209.8286,269.6119,90.4484,0,U,62837,999,8517,.96145392E-3,.124647E-2,0
STARLINK-11556 [DTC],2025-019K,2026-07-23T07:35:49.440480,15.70864608,.00017441,43.0004,208.2595,279.0906,80.9765,0,U,62838,999,8521,.13190664E-2,.172544E-2,0
STARLINK-11524 [DTC],2025-019L,2026-07-23T07:04:06.756960,15.70858993,.00006802,42.9997,208.9772,266.4063,93.6726,0,U,62839,999,8520,.86399688E-3,.112007E-2,0
STARLINK-11551 [DTC],2025-019M,2026-07-23T06:18:14.401152,15.70841319,.0001365,42.9998,208.7206,246.8879,113.1845,0,U,62840,999,8520,.20620249E-2,.27303E-2,0
STARLINK-11531 [DTC],2025-019N,2026-07-23T06:00:02.000160,15.70913354,.00012946,43.0002,209.0234,262.5611,295.7210,0,U,62841,999,583,-.13774619E-2,-.174081E-2,0
STARLINK-32755,2025-019P,2026-07-23T05:51:46.375200,15.27589350,.00003788,42.9996,36.3984,280.2099,79.8710,0,U,62842,999,8306,.77866701E-3,.21233E-3,0
STARLINK-32797,2025-019Q,2026-07-22T23:41:08.982528,15.27553586,.00014849,43.0033,44.8321,292.4121,67.6573,0,U,62843,999,8294,.8335717E-5,-.33E-6,0
STARLINK-32794,2025-019R,2026-07-23T06:34:45.624288,15.27580999,.00033187,43.0111,43.5385,256.9116,103.1365,0,U,62844,999,8298,.42616485E-3,.11484E-3,0
STARLINK-32807,2025-019S,2026-07-22T15:01:47.903232,15.27598142,.00021313,43.0016,39.4907,283.7003,76.3611,0,U,62845,999,8297,.79833806E-3,.21784E-3,0
STARLINK-32804,2025-019T,2026-07-22T22:18:05.394240,15.27586227,.00015082,43.0020,45.2601,273.7421,86.3258,0,U,62846,999,8293,.11080224E-2,.3036E-3,0
STARLINK-32799,2025-019U,2026-07-23T05:46:40.752480,15.27572327,.00008455,42.9971,43.2911,4.1791,355.9068,0,U,62847,999,8298,.66041108E-3,.17951E-3,0
STARLINK-32781,2025-019V,2026-07-22T23:50:23.271360,15.27607014,.00013253,43.0019,44.8805,265.1675,94.9026,0,U,62848,999,8294,.95118503E-3,.26026E-3,0
STARLINK-32809,2025-019W,2026-07-22T21:41:04.895232,15.27589542,.00019129,43.0022,45.0576,261.9212,98.1422,0,U,62849,999,8293,.80855889E-3,.22061E-3,0
SPAINSAT NG I,2025-021A,2026-07-23T06:16:42.453408,1.00271465,.00002944,0.0160,48.9990,29.6521,345.4986,0,U,62852,999,434,0,.156E-5,0
STARLINK-32868,2025-022A,2026-07-22T18:29:08.067264,15.34411046,.00014188,53.1581,219.1983,84.7544,275.3620,0,U,62854,999,8343,.87157858E-3,.29197E-3,0
STARLINK-32867,2025-022B,2026-07-23T04:41:02.054688,15.34450835,.00014679,53.1571,218.9847,113.1738,246.9419,0,U,62855,999,8266,.5979804E-3,.19914E-3,0
STARLINK-32860,2025-022C,2026-07-23T07:09:16.451712,15.34389678,.00006856,53.1591,218.2205,316.6826,43.4123,0,U,62856,999,8268,.61167748E-3,.2034E-3,0
STARLINK-32873,2025-022D,2026-07-22T18:47:58.969824,15.34386236,.00015434,53.1580,220.6974,114.0974,246.0190,0,U,62857,999,8260,.16202507E-3,.5099E-4,0
STARLINK-32866,2025-022E,2026-07-23T07:11:39.216480,15.34370997,.00015371,53.1579,216.8133,98.9158,261.2019,0,U,62858,999,8270,.95505974E-3,.32E-3,0
STARLINK-32869,2025-022F,2026-07-23T04:31:58.374912,15.34410103,.000114,53.1577,218.9452,97.5082,262.6050,0,U,62859,999,8266,.8702392E-3,.2915E-3,0
STARLINK-32831,2025-022G,2026-07-23T00:38:56.520384,15.34405266,.00015971,53.1587,219.3792,71.3028,288.8148,0,U,62860,999,8263,.69678612E-3,.23243E-3,0
STARLINK-32859,2025-022H,2026-07-23T04:50:09.606048,15.34387038,.00011398,53.1569,219.0366,35.5775,324.5303,0,U,62861,999,8266,.43058703E-3,.14194E-3,0
STARLINK-32864,2025-022J,2026-07-23T07:12:19.601568,15.34378466,.0003191,53.1578,218.2218,90.8761,269.2607,0,U,62862,999,8268,.58611799E-3,.19466E-3,0
STARLINK-32808,2025-022K,2026-07-23T04:38:01.683456,15.34378489,.00009826,53.1573,218.9856,80.3405,279.7708,0,U,62863,999,8266,.44861753E-3,.14801E-3,0
STARLINK-32862,2025-022L,2026-07-23T01:12:16.038432,15.34398638,.00007243,53.1581,219.5209,91.9845,268.1241,0,U,62864,999,8264,.10398702E-2,.3492E-3,0
STARLINK-32841,2025-022M,2026-07-22T07:57:27.625536,15.34435349,.00006227,53.1576,222.8572,76.8591,283.2481,0,U,62865,999,8252,.72390174E-3,.24188E-3,0
STARLINK-32695,2025-022N,2026-07-22T18:35:11.896800,15.34383986,.00019244,53.1582,219.2201,100.1763,259.9457,0,U,62866,999,8262,.67118983E-3,.22357E-3,0
STARLINK-32846,2025-022P,2026-07-23T04:22:53.178816,15.34386300,.0000801,53.1585,218.9071,81.3644,278.7450,0,U,62867,999,8266,.49722787E-3,.16453E-3,0
STARLINK-32822,2025-022Q,2026-07-22T18:35:52.897056,15.34380038,.00023059,53.1578,220.6426,95.2966,264.8300,0,U,62868,999,8260,.88341124E-3,.29571E-3,0
STARLINK-32813,2025-022R,2026-07-23T04:28:56.924544,15.34407611,.00006742,53.1583,218.9510,89.9895,270.1185,0,U,62869,999,8266,.10094323E-2,.33891E-3,0
STARLINK-32861,2025-022S,2026-07-23T07:08:35.724480,15.34387923,.00018732,53.1574,216.8041,94.6919,265.4298,0,U,62870,999,8270,.72322444E-3,.24129E-3,0
STARLINK-32814,2025-022T,2026-07-22T18:26:46.873248,15.34403430,.00003494,53.1573,220.6054,8.8273,351.2736,0,U,62871,999,8260,.43834004E-3,.14464E-3,0
STARLINK-32849,2025-022U,2026-07-22T10:40:49.757376,15.34412918,.00004863,53.1584,222.1450,46.0874,314.0168,0,U,62872,999,8255,.65898073E-3,.21963E-3,0
STARLINK-32833,2025-022V,2026-07-22T11:02:02.433696,15.34414804,.00008583,53.1583,222.2350,78.9761,281.1338,0,U,62873,999,8255,.81717205E-3,.27347E-3,0
STARLINK-32793,2025-022W,2026-07-23T01:48:37.211616,15.34423900,.00008741,53.1575,219.6763,96.1741,263.9361,0,U,62874,999,8264,.85765942E-3,.28734E-3,0
STARLINK-32834,2025-022X,2026-07-23T00:48:01.854720,15.34391836,.00017546,53.1588,219.4154,84.9735,275.1468,0,U,62875,999,8264,.75734015E-3,.25292E-3,0
QZS-6 (MICHIBIKI-6),2025-023A,2026-07-23T03:42:38.687616,1.00273859,.00020785,0.0186,54.0250,61.5911,331.4327,0,U,62876,999,531,0,-.229E-5,0
STARLINK-11371 [DTC],2025-024A,2026-07-23T02:58:29.164224,15.70862659,.00017087,43.0003,85.3970,257.8418,102.2258,0,U,62879,999,8476,.13667432E-2,.17892E-2,0
STARLINK-11352 [DTC],2025-024B,2026-07-23T00:33:24.617376,15.70846347,.00013716,43.0011,85.4801,269.3796,90.6915,0,U,62880,999,8475,.15867636E-2,.208396E-2,0
STARLINK-11382 [DTC],2025-024C,2026-07-23T01:03:58.771872,15.70894995,.00036075,42.9995,85.6515,256.0464,104.0002,0,U,62881,999,8475,.18593816E-2,.245931E-2,0
STARLINK-11432 [DTC],2025-024D,2026-07-23T02:50:50.682624,15.70843289,.00014395,43.0002,85.3532,254.4657,105.6052,0,U,62882,999,8476,.1533493E-2,.201182E-2,0
STARLINK-11419 [DTC],2025-024E,2026-07-23T00:56:20.581440,15.70868182,.00027013,43.0038,85.6077,276.3966,83.6594,0,U,62883,999,8475,.19703923E-2,.260792E-2,0
STARLINK-11437 [DTC],2025-024F,2026-07-23T01:11:38.194368,15.70871497,.00017875,43.0008,85.6925,256.6752,103.3917,0,U,62884,999,8475,.16126944E-2,.21213E-2,0
STARLINK-11442 [DTC],2025-024G,2026-07-23T03:21:14.329152,15.70859899,.00013178,43.0001,84.6266,256.7797,103.2924,0,U,62885,999,8477,.12446924E-2,.162558E-2,0
STARLINK-11365 [DTC],2025-024H,2026-07-23T03:28:52.890240,15.70895823,.00016212,43.0004,84.6685,275.0556,85.0127,0,U,62886,999,8477,.152395E-2,.20035E-2,0
STARLINK-11436 [DTC],2025-024J,2026-07-23T00:48:41.851008,15.70872664,.00018981,43.0006,85.5625,280.9494,79.1160,0,U,62887,999,8475,.15954675E-2,.209812E-2,0
STARLINK-11438 [DTC],2025-024K,2026-07-23T03:30:11.922048,15.70871103,.00016549,43.0013,84.6745,281.7296,78.3386,0,U,62888,999,8477,.16845224E-2,.221856E-2,0
STARLINK-11391 [DTC],2025-024L,2026-07-23T03:44:10.184352,15.70862856,.0001474,42.9980,84.7372,287.5981,72.4725,0,U,62889,999,8477,.18367444E-2,.242468E-2,0
STARLINK-11431 [DTC],2025-024M,2026-07-23T03:13:46.537824,15.70827581,.00016718,43.0011,85.4776,263.5448,96.5229,0,U,62890,999,8476,.40887369E-3,.52319E-3,0
STARLINK-11435 [DTC],2025-024N,2026-07-23T03:06:07.852320,15.70888046,.00019747,42.9998,85.4342,244.8384,115.2279,0,U,62891,999,8476,.20424697E-2,.270898E-2,0
STARLINK-32878,2025-024P,2026-07-23T05:32:00.834144,15.27579171,.00009413,42.9983,280.0336,259.8142,100.2604,0,U,62892,999,8299,.73712221E-3,.20077E-3,0
STARLINK-32892,2025-024Q,2026-07-23T05:37:33.836160,15.27576933,.00007867,42.9977,280.0579,256.5394,103.5370,0,U,62893,999,8299,.68615539E-3,.18665E-3,0
STARLINK-32909,2025-024R,2026-07-23T05:46:49.072800,15.27564090,.00015565,43.0004,280.1115,289.4870,70.5813,0,U,62894,999,8299,.10878972E-2,.29781E-3,0
STARLINK-32901,2025-024S,2026-07-23T06:40:15.606624,15.27585390,.00015055,43.0019,279.5248,271.3447,88.7232,0,U,62895,999,8300,.37809683E-3,.10158E-3,0
STARLINK-32890,2025-024T,2026-07-23T05:57:42.534144,15.27575410,.00008168,42.9997,279.3027,279.0205,81.0554,0,U,62896,999,8300,.60267131E-3,.16357E-3,0
STARLINK-32893,2025-024U,2026-07-23T06:14:21.681024,15.27576601,.00008984,43.0003,279.3849,232.0182,128.0588,0,U,62897,999,8300,.68739267E-3,.18699E-3,0
STARLINK-32902,2025-024V,2026-07-23T04:34:38.760960,15.27581500,.00010161,43.0006,279.7231,243.2854,116.7894,0,U,62898,999,8299,.90797794E-3,.24809E-3,0
STARLINK-32661,2025-024W,2026-07-23T05:11:39.810336,15.27583645,.00007634,42.9979,279.9271,314.2751,45.8038,0,U,62899,999,8299,.78621924E-3,.21438E-3,0
